H1 CPF 01  gfz 2021 07 10 00  6911 tandemx   
H2 1003001  6202 36605    2021 07 10 00 59 42 2021 07 15 00 00 42   120 1 1  0 0 0
H9
10 0 59408  75582.000000  0    3563124.167  -4257487.749   4068968.013
10 0 59408  75702.000000  0    3043637.018  -3932466.304   4757347.987
10 0 59408  75822.000000  0    2477336.996  -3529220.821   5362001.602
10 0 59408  75942.000000  0    1875449.946  -3054099.612   5872321.257
10 0 59408  76062.000000  0    1249692.295  -2514902.097   6279367.536
10 0 59408  76182.000000  0     612040.273  -1920745.804   6576019.524
10 0 59408  76302.000000  0     -25500.872  -1281908.812   6757093.110
10 0 59408  76422.000000  0    -651122.523   -609649.724   6819426.325
10 0 59408  76542.000000  0   -1253430.357     83991.920   6761930.787
10 0 59408  76662.000000  0   -1821651.160    786410.924   6585609.451
10 0 59408  76782.000000  0   -2345825.039   1484664.813   6293540.145
10 0 59408  76902.000000  0   -2816980.577   2165711.404   5890825.189
10 0 59408  77022.000000  0   -3227289.998   2816652.498   5384508.153
10 0 59408  77142.000000  0   -3570202.755   3424980.084   4783457.033
10 0 59408  77262.000000  0   -3840554.511   3978819.759   4098214.584
10 0 59408  77382.000000  0   -4034648.765   4467167.597   3340817.723
10 0 59408  77502.000000  0   -4150309.376   4880114.951   2524587.609
10 0 59408  77622.000000  0   -4186901.775   5209054.734   1663893.073
10 0 59408  77742.000000  0   -4145322.642   5446864.259    773893.676
10 0 59408  77862.000000  0   -4027959.313   5588060.836   -129733.159
10 0 59408  77982.000000  0   -3838618.465   5628926.410  -1031077.451
10 0 59408  78102.000000  0   -3582424.558   5567595.308  -1914287.523
10 0 59408  78222.000000  0   -3265691.445   5404103.187  -2763857.385
10 0 59408  78342.000000  0   -2895771.029   5140398.488  -3564904.376
10 0 59408  78462.000000  0   -2480884.720   4780314.137  -4303432.071
10 0 59408  78582.000000  0   -2029940.910   4329502.761  -4966572.477
10 0 59408  78702.000000  0   -1552344.081   3795338.783  -5542803.032
10 0 59408  78822.000000  0   -1057800.033   3186790.150  -6022138.866
10 0 59408  78942.000000  0    -556119.992   2514260.221  -6396296.314
10 0 59408  79062.000000  0     -57028.349   1789404.980  -6658823.992
10 0 59408  79182.000000  0     430021.288   1024930.355  -6805203.149
10 0 59408  79302.000000  0     896020.517    234371.914  -6832917.770
10 0 59408  79422.000000  0    1332569.122   -568140.546  -6741493.169
10 0 59408  79542.000000  0    1732022.329  -1368130.032  -6532501.686
10 0 59408  79662.000000  0    2087621.408  -2151026.220  -6209538.443
10 0 59408  79782.000000  0    2393606.967  -2902424.222  -5778166.848
10 0 59408  79902.000000  0    2645312.823  -3608346.762  -5245834.488
10 0 59408  80022.000000  0    2839239.345  -4255505.712  -4621754.690
10 0 59408  80142.000000  0    2973102.760  -4831553.411  -3916756.390
10 0 59408  80262.000000  0    3045861.137  -5325322.757  -3143107.516
10 0 59408  80382.000000  0    3057716.173  -5727052.987  -2314309.469
10 0 59408  80502.000000  0    3010089.792  -6028591.827  -1444864.801
10 0 59408  80622.000000  0    2905575.918  -6223570.359   -550023.116
10 0 59408  80742.000000  0    2747866.645  -6307544.934    354491.568
10 0 59408  80862.000000  0    2541655.172  -6278100.401   1252763.772
10 0 59408  80982.000000  0    2292518.552  -6134915.014   2128975.305
10 0 59408  81102.000000  0    2006781.720  -5879781.012   2967694.181
10 0 59408  81222.000000  0    1691367.351  -5516581.695   3754153.540
10 0 59408  81342.000000  0    1353635.115  -5051227.911   4474516.480
10 0 59408  81462.000000  0    1001215.455  -4491554.925   5116121.904
10 0 59408  81582.000000  0     641840.934  -3847182.679   5667708.359
10 0 59408  81702.000000  0     283178.730  -3129339.812   6119609.341
10 0 59408  81822.000000  0     -67330.402  -2350659.260   6463916.117
10 0 59408  81942.000000  0    -402623.966  -1524951.074   6694609.172
10 0 59408  82062.000000  0    -716157.807   -666955.340   6807658.166
10 0 59408  82182.000000  0   -1002032.409    207922.517   6801089.021
10 0 59408  82302.000000  0   -1255103.252   1083888.762   6675016.142
10 0 59408  82422.000000  0   -1471072.971   1945045.898   6431640.173
10 0 59408  82542.000000  0   -1646564.527   2775680.576   6075212.139
10 0 59408  82662.000000  0   -1779174.403   3560550.992   5611963.462
10 0 59408  82782.000000  0   -1867504.320   4285168.680   5050002.835
10 0 59408  82902.000000  0   -1911171.913   4936071.390   4399181.159
10 0 59408  83022.000000  0   -1910799.376   5501080.809   3670923.420
10 0 59408  83142.000000  0   -1867980.292   5969539.319   2878030.737
10 0 59408  83262.000000  0   -1785225.904   6332519.807   2034455.060
10 0 59408  83382.000000  0   -1665890.698   6583004.746   1155050.608
10 0 59408  83502.000000  0   -1514078.668   6716028.554    255306.554
10 0 59408  83622.000000  0   -1334533.813   6728780.079   -648932.927
10 0 59408  83742.000000  0   -1132517.069   6620663.457  -1541757.528
10 0 59408  83862.000000  0    -913671.802   6393310.465  -2407482.104
10 0 59408  83982.000000  0    -683883.724   6050546.288  -3230928.267
10 0 59408  84102.000000  0    -449138.220   5598314.343  -3997692.296
10 0 59408  84222.000000  0    -215378.236   5044561.837  -4694396.848
10 0 59408  84342.000000  0      11633.764   4399087.854  -5308920.473
10 0 59408  84462.000000  0     226447.070   3673359.257  -5830601.729
10 0 59408  84582.000000  0     424043.960   2880297.470  -6250414.933
10 0 59408  84702.000000  0     599947.856   2034042.109  -6561114.630
10 0 59408  84822.000000  0     750317.460   1149697.729  -6757349.137
10 0 59408  84942.000000  0     872025.058    243066.275  -6835743.521
10 0 59408  85062.000000  0     962717.823   -669630.618  -6794951.388
10 0 59408  85182.000000  0    1020861.205  -1572035.767  -6635674.189
10 0 59408  85302.000000  0    1045764.188  -2447940.965  -6360649.317
10 0 59408  85422.000000  0    1037586.853  -3281570.588  -5974610.120
10 0 59408  85542.000000  0     997328.606  -4057863.646  -5484214.422
10 0 59408  85662.000000  0     926797.825  -4762745.850  -4897939.109
10 0 59408  85782.000000  0     828564.072  -5383387.576  -4225945.352
10 0 59408  85902.000000  0     705892.184  -5908445.189  -3479913.373
10 0 59408  86022.000000  0     562659.857  -6328278.577  -2672847.385
10 0 59408  86142.000000  0     403260.605  -6635140.371  -1818854.521
10 0 59408  86262.000000  0     232493.765  -6823332.385   -932899.265
10 0 59408  86382.000000  0      55443.778  -6889322.643    -30538.032
10 0 59409    102.000000  0    -122648.133  -6831820.216    872359.465
10 0 59409    222.000000  0    -296516.501  -6651806.514   1759896.763
10 0 59409    342.000000  0    -461005.246  -6352520.972   2616440.092
10 0 59409    462.000000  0    -611198.610  -5939399.999   3426903.800
10 0 59409    582.000000  0    -742545.392  -5419969.581   4177022.866
10 0 59409    702.000000  0    -850974.894  -4803699.672   4853606.871
10 0 59409    822.000000  0    -933000.536  -4101821.892   5444772.959
10 0 59409    942.000000  0    -985809.001  -3327115.442   5940153.755
10 0 59409   1062.000000  0   -1007333.347  -2493663.960   6331075.372
10 0 59409   1182.000000  0    -996307.740  -1616592.708   6610701.360
10 0 59409   1302.000000  0    -952303.928   -711791.691   6774146.285
10 0 59409   1422.000000  0    -875749.642    204374.072   6818556.748
10 0 59409   1542.000000  0    -767927.183   1115360.647   6743158.083
10 0 59409   1662.000000  0    -630951.517   2004743.613   6549267.196
10 0 59409   1782.000000  0    -467729.096   2856513.793   6240270.806
10 0 59409   1902.000000  0    -281898.311   3655365.751   5821570.046
10 0 59409   2022.000000  0     -77752.790   4386975.502   5300491.107
10 0 59409   2142.000000  0     139851.954   5038261.648   4686163.257
10 0 59409   2262.000000  0     365606.912   5597627.831   3989364.321
10 0 59409   2382.000000  0     593869.906   6055175.392   3222334.045
10 0 59409   2502.000000  0     818796.072   6402891.055   2398565.567
10 0 59409   2622.000000  0    1034477.535   6634799.878   1532561.761
10 0 59409   2742.000000  0    1235084.934   6747073.424    639574.554
10 0 59409   2862.000000  0    1415009.793   6738096.751   -264671.336
10 0 59409   2982.000000  0    1569003.340   6608490.707  -1164263.560
10 0 59409   3102.000000  0    1692307.656   6361089.569  -2043389.937
10 0 59409   3222.000000  0    1780776.685   6000875.458  -2886623.307
10 0 59409   3342.000000  0    1830983.904   5534870.476  -3679197.683
10 0 59409   3462.000000  0    1840314.133   4971989.132  -4407269.398
10 0 59409   3582.000000  0    1807037.232   4322855.385  -5058156.947
10 0 59409   3702.000000  0    1730362.121   3599591.182  -5620555.354
10 0 59409   3822.000000  0    1610470.990   2815581.941  -6084723.914
10 0 59409   3942.000000  0    1448532.093   1985222.566  -6442644.030
10 0 59409   4062.000000  0    1246692.403   1123651.769  -6688145.499
10 0 59409   4182.000000  0    1008050.578    246478.330  -6817003.342
10 0 59409   4302.000000  0     736609.447   -630497.566  -6827002.671
10 0 59409   4422.000000  0     437209.438  -1491562.979  -6717971.335
10 0 59409   4542.000000  0     115444.623  -2321365.432  -6491781.423
10 0 59409   4662.000000  0    -222438.223  -3105179.542  -6152322.625
10 0 59409   4782.000000  0    -569657.260  -3829165.763  -5705442.900
10 0 59409   4902.000000  0    -919026.400  -4480613.451  -5158857.328
10 0 59409   5022.000000  0   -1263098.611  -5048167.279  -4522027.053
10 0 59409   5142.000000  0   -1594319.770  -5522032.304  -3806006.662
10 0 59409   5262.000000  0   -1905189.616  -5894152.607  -3023261.459
10 0 59409   5382.000000  0   -2188426.285  -6158359.411  -2187457.276
10 0 59409   5502.000000  0   -2437131.041  -6310485.567  -1313225.297
10 0 59409   5622.000000  0   -2644949.069  -6348442.592   -415904.794
99
